{"type": "FeatureCollection", "features": [ {"type": "Feature", "properties": {"norad_id": 66798, "name": "STARLINK-36041", "group": "last-30-days", "lat": 42.963714714818714, "lon": -66.75054175538286, "alt_km": 374.762973600682, "timestamp": "2025-12-20T11:30:27.105900+00:00", "meta": {"OBJECT_NAME": "STARLINK-36041", "OBJECT_ID": "2025-278H", "EPOCH": "2025-12-20T04:00:00.999072", "MEAN_MOTION": 15.63895673, "ECCENTRICITY": 0.0001509, "INCLINATION": 42.9989, "RA_OF_ASC_NODE": 206.9416, "ARG_OF_PERICENTER": 274.9517, "MEAN_ANOMALY": 211.262, "EPHEMERIS_TYPE": 0, "CLASSIFICATION_TYPE": "U", "NORAD_CAT_ID": 66798, "ELEMENT_SET_NO": 999, "REV_AT_EPOCH": 399, "BSTAR": -0.023003, "MEAN_MOTION_DOT": -0.01960712, "MEAN_MOTION_DDOT": 0}, "tle": {"line1": "1 66798U 25278H   25354.16667823 -.01960712  00000+0 -23003-1 0  9994", "line2": "2 66798  42.9989 206.9416 0001509 274.9517 211.2620 15.63895673  3995"}}, "geometry": {"type": "Point", "coordinates": [-66.75054175538286, 42.963714714818714]}}, {"type": "Feature", "properties": {"norad_id": 66799, "name": "STARLINK-36044", "group": "last-30-days", "lat": 42.97519507050576, "lon": -64.13259621269607, "alt_km": 374.73874474143486, "timestamp": "2025-12-20T11:30:27.105909+00:00", "meta": {"OBJECT_NAME": "STARLINK-36044", "OBJECT_ID": "2025-278J", "EPOCH": "2025-12-20T04:00:00.999072", "MEAN_MOTION": 15.63892111, "ECCENTRICITY": 0.0001455, "INCLINATION": 42.9986, "RA_OF_ASC_NODE": 206.9375, "ARG_OF_PERICENTER": 272.7939, "MEAN_ANOMALY": 215.34, "EPHEMERIS_TYPE": 0, "CLASSIFICATION_TYPE": "U", "NORAD_CAT_ID": 66799, "ELEMENT_SET_NO": 999, "REV_AT_EPOCH": 415, "BSTAR": -0.022969, "MEAN_MOTION_DOT": -0.01957863, "MEAN_MOTION_DDOT": 0}, "tle": {"line1": "1 66799U 25278J   25354.16667823 -.01957863  00000+0 -22969-1 0  9998", "line2": "2 66799  42.9986 206.9375 0001455 272.7939 215.3400 15.63892111  4155"}}, "geometry": {"type": "Point", "coordinates": [-64.13259621269607, 42.97519507050576]}}, {"type": "Feature", "properties": {"norad_id": 66800, "name": "STARLINK-35996", "group": "last-30-days", "lat": 42.81979607151791, "lon": -58.90342747138916, "alt_km": 374.7464146935463, "timestamp": "2025-12-20T11:30:27.105921+00:00", "meta": {"OBJECT_NAME": "STARLINK-35996", "OBJECT_ID": "2025-278K", "EPOCH": "2025-12-20T04:00:00.999072", "MEAN_MOTION": 15.6389701, "ECCENTRICITY": 0.0001417, "INCLINATION": 42.9992, "RA_OF_ASC_NODE": 206.9273, "ARG_OF_PERICENTER": 274.2985, "MEAN_ANOMALY": 217.6699, "EPHEMERIS_TYPE": 0, "CLASSIFICATION_TYPE": "U", "NORAD_CAT_ID": 66800, "ELEMENT_SET_NO": 999, "REV_AT_EPOCH": 394, "BSTAR": -0.023082, "MEAN_MOTION_DOT": -0.0196664, "MEAN_MOTION_DDOT": 0}, "tle": {"line1": "1 66800U 25278K   25354.16667823 -.01966640  00000+0 -23082-1 0  9991", "line2": "2 66800  42.9992 206.9273 0001417 274.2985 217.6699 15.63897010  3942"}}, "geometry": {"type": "Point", "coordinates": [-58.90342747138916, 42.81979607151791]}}, {"type": "Feature", "properties": {"norad_id": 66801, "name": "STARLINK-36080", "group": "last-30-days", "lat": 41.40847065922006, "lon": -46.122750199419556, "alt_km": 375.0212118770196, "timestamp": "2025-12-20T11:30:27.105934+00:00", "meta": {"OBJECT_NAME": "STARLINK-36080", "OBJECT_ID": "2025-278L", "EPOCH": "2025-12-20T04:00:00.999072", "MEAN_MOTION": 15.63894788, "ECCENTRICITY": 0.000151, "INCLINATION": 42.9989, "RA_OF_ASC_NODE": 206.902, "ARG_OF_PERICENTER": 274.89, "MEAN_ANOMALY": 226.6635, "EPHEMERIS_TYPE": 0, "CLASSIFICATION_TYPE": "U", "NORAD_CAT_ID": 66801, "ELEMENT_SET_NO": 999, "REV_AT_EPOCH": 415, "BSTAR": -0.023039, "MEAN_MOTION_DOT": -0.01963368, "MEAN_MOTION_DDOT": 0}, "tle": {"line1": "1 66801U 25278L   25354.16667823 -.01963368  00000+0 -23039-1 0  9998", "line2": "2 66801  42.9989 206.9020 0001510 274.8900 226.6635 15.63894788  4159"}}, "geometry": {"type": "Point", "coordinates": [-46.122750199419556, 41.40847065922006]}}, {"type": "Feature", "properties": {"norad_id": 66802, "name": "STARLINK-35604", "group": "last-30-days", "lat": 42.9274606300305, "lon": -61.515258194353116, "alt_km": 374.7813502268764, "timestamp": "2025-12-20T11:30:27.105945+00:00", "meta": {"OBJECT_NAME": "STARLINK-35604", "OBJECT_ID": "2025-278M", "EPOCH": "2025-12-20T04:00:00.999072", "MEAN_MOTION": 15.63894552, "ECCENTRICITY": 0.0001527, "INCLINATION": 42.999, "RA_OF_ASC_NODE": 206.9315, "ARG_OF_PERICENTER": 278.6719, "MEAN_ANOMALY": 211.3763, "EPHEMERIS_TYPE": 0, "CLASSIFICATION_TYPE": "U", "NORAD_CAT_ID": 66802, "ELEMENT_SET_NO": 999, "REV_AT_EPOCH": 415, "BSTAR": -0.022991, "MEAN_MOTION_DOT": -0.01959749, "MEAN_MOTION_DDOT": 0}, "tle": {"line1": "1 66802U 25278M   25354.16667823 -.01959749  00000+0 -22991-1 0  9993", "line2": "2 66802  42.9990 206.9315 0001527 278.6719 211.3763 15.63894552  4159"}}, "geometry": {"type": "Point", "coordinates": [-61.515258194353116, 42.9274606300305]}}, {"type": "Feature", "properties": {"norad_id": 66803, "name": "STARLINK-35565", "group": "last-30-days", "lat": 42.65258498240813, "lon": -56.307500771292005, "alt_km": 374.7965697026066, "timestamp": "2025-12-20T11:30:27.105957+00:00", "meta": {"OBJECT_NAME": "STARLINK-35565", "OBJECT_ID": "2025-278N", "EPOCH": "2025-12-20T04:00:00.999072", "MEAN_MOTION": 15.63896541, "ECCENTRICITY": 0.0001457, "INCLINATION": 42.9989, "RA_OF_ASC_NODE": 206.9222, "ARG_OF_PERICENTER": 274.4382, "MEAN_ANOMALY": 219.4452, "EPHEMERIS_TYPE": 0, "CLASSIFICATION_TYPE": "U", "NORAD_CAT_ID": 66803, "ELEMENT_SET_NO": 999, "REV_AT_EPOCH": 424, "BSTAR": -0.02305, "MEAN_MOTION_DOT": -0.01964257, "MEAN_MOTION_DDOT": 0}, "tle": {"line1": "1 66803U 25278N   25354.16667823 -.01964257  00000+0 -23050-1 0  9991", "line2": "2 66803  42.9989 206.9222 0001457 274.4382 219.4452 15.63896541  4241"}}, "geometry": {"type": "Point", "coordinates": [-56.307500771292005, 42.65258498240813]}}, {"type": "Feature", "properties": {"norad_id": 66804, "name": "STARLINK-36038", "group": "last-30-days", "lat": 42.427599100320236, "lon": -53.72623201961729, "alt_km": 374.82982757195623, "timestamp": "2025-12-20T11:30:27.105967+00:00", "meta": {"OBJECT_NAME": "STARLINK-36038", "OBJECT_ID": "2025-278P", "EPOCH": "2025-12-20T04:00:00.999072", "MEAN_MOTION": 15.63893299, "ECCENTRICITY": 0.0001458, "INCLINATION": 42.9994, "RA_OF_ASC_NODE": 206.9179, "ARG_OF_PERICENTER": 272.5656, "MEAN_ANOMALY": 223.2366, "EPHEMERIS_TYPE": 0, "CLASSIFICATION_TYPE": "U", "NORAD_CAT_ID": 66804, "ELEMENT_SET_NO": 999, "REV_AT_EPOCH": 415, "BSTAR": -0.022997, "MEAN_MOTION_DOT": -0.0196008, "MEAN_MOTION_DDOT": 0}, "tle": {"line1": "1 66804U 25278P   25354.16667823 -.01960080  00000+0 -22997-1 0  9991", "line2": "2 66804  42.9994 206.9179 0001458 272.5656 223.2366 15.63893299  4157"}}, "geometry": {"type": "Point", "coordinates": [-53.72623201961729, 42.427599100320236]}}, {"type": "Feature", "properties": {"norad_id": 66805, "name": "STARLINK-36049", "group": "last-30-days", "lat": 41.80356005233296, "lon": -48.62686061566519, "alt_km": 374.9809909521573, "timestamp": "2025-12-20T11:30:27.105976+00:00", "meta": {"OBJECT_NAME": "STARLINK-36049", "OBJECT_ID": "2025-278Q", "EPOCH": "2025-12-20T04:00:00.999072", "MEAN_MOTION": 15.6390001, "ECCENTRICITY": 0.0001526, "INCLINATION": 42.9991, "RA_OF_ASC_NODE": 206.9069, "ARG_OF_PERICENTER": 275.3092, "MEAN_ANOMALY": 224.3269, "EPHEMERIS_TYPE": 0, "CLASSIFICATION_TYPE": "U", "NORAD_CAT_ID": 66805, "ELEMENT_SET_NO": 999, "REV_AT_EPOCH": 415, "BSTAR": -0.02315, "MEAN_MOTION_DOT": -0.01972037, "MEAN_MOTION_DDOT": 0}, "tle": {"line1": "1 66805U 25278Q   25354.16667823 -.01972037  00000+0 -23150-1 0  9999", "line2": "2 66805  42.9991 206.9069 0001526 275.3092 224.3269 15.63900010  4158"}}, "geometry": {"type": "Point", "coordinates": [-48.62686061566519, 41.80356005233296]}}, {"type": "Feature", "properties": {"norad_id": 66806, "name": "STARLINK-36069", "group": "last-30-days", "lat": 42.144257528180965, "lon": -51.16548761670655, "alt_km": 374.91090675963005, "timestamp": "2025-12-20T11:30:27.105988+00:00", "meta": {"OBJECT_NAME": "STARLINK-36069", "OBJECT_ID": "2025-278R", "EPOCH": "2025-12-20T04:00:00.999072", "MEAN_MOTION": 15.63893976, "ECCENTRICITY": 0.0001513, "INCLINATION": 42.9994, "RA_OF_ASC_NODE": 206.9123, "ARG_OF_PERICENTER": 275.279, "MEAN_ANOMALY": 222.439, "EPHEMERIS_TYPE": 0, "CLASSIFICATION_TYPE": "U", "NORAD_CAT_ID": 66806, "ELEMENT_SET_NO": 999, "REV_AT_EPOCH": 394, "BSTAR": -0.022998, "MEAN_MOTION_DOT": -0.01960179, "MEAN_MOTION_DDOT": 0}, "tle": {"line1": "1 66806U 25278R   25354.16667823 -.01960179  00000+0 -22998-1 0  9993", "line2": "2 66806  42.9994 206.9123 0001513 275.2790 222.4390 15.63893976  3945"}}, "geometry": {"type": "Point", "coordinates": [-51.16548761670655, 42.144257528180965]}}, {"type": "Feature", "properties": {"norad_id": 66807, "name": "STARLINK-36000", "group": "last-30-days", "lat": 40.959256585236325, "lon": -43.64571875157926, "alt_km": 374.99534426688933, "timestamp": "2025-12-20T11:30:27.106001+00:00", "meta": {"OBJECT_NAME": "STARLINK-36000", "OBJECT_ID": "2025-278S", "EPOCH": "2025-12-20T04:00:00.999072", "MEAN_MOTION": 15.63899642, "ECCENTRICITY": 0.0001386, "INCLINATION": 42.9992, "RA_OF_ASC_NODE": 206.8982, "ARG_OF_PERICENTER": 272.5735, "MEAN_ANOMALY": 230.8965, "EPHEMERIS_TYPE": 0, "CLASSIFICATION_TYPE": "U", "NORAD_CAT_ID": 66807, "ELEMENT_SET_NO": 999, "REV_AT_EPOCH": 421, "BSTAR": -0.023126, "MEAN_MOTION_DOT": -0.01970091, "MEAN_MOTION_DDOT": 0}, "tle": {"line1": "1 66807U 25278S   25354.16667823 -.01970091  00000+0 -23126-1 0  9992", "line2": "2 66807  42.9992 206.8982 0001386 272.5735 230.8965 15.63899642  4211"}}, "geometry": {"type": "Point", "coordinates": [-43.64571875157926, 40.959256585236325]}}]}